CCSDS_OMM_VERS = 2.0
CREATION_DATE  = 
ORIGINATOR     = 

OBJECT_NAME    = COSMOS 2151
OBJECT_ID      = 1991-042A
CENTER_NAME    = EARTH
REF_FRAME      = TEME
TIME_SYSTEM    = UTC
MEAN_ELEMENT_THEORY = SGP/SGP4

EPOCH          = 2025-12-02T19:33:23.408064
MEAN_MOTION    = 14.99626880
ECCENTRICITY   = .0013418
INCLINATION    = 82.4962
RA_OF_ASC_NODE = 177.0670
ARG_OF_PERICENTER = 32.3804
MEAN_ANOMALY   = 327.8240

EPHEMERIS_TYPE = 0
CLASSIFICATION_TYPE = U
NORAD_CAT_ID   = 21422
ELEMENT_SET_NO = 999
REV_AT_EPOCH   = 84867
BSTAR          = .17507E-3
MEAN_MOTION_DOT = .2185E-4
MEAN_MOTION_DDOT = 0

CCSDS_OMM_VERS = 2.0
CREATION_DATE  = 
ORIGINATOR     = 

OBJECT_NAME    = SL-14 R/B
OBJECT_ID      = 1991-042B
CENTER_NAME    = EARTH
REF_FRAME      = TEME
TIME_SYSTEM    = UTC
MEAN_ELEMENT_THEORY = SGP/SGP4

EPOCH          = 2025-12-02T15:39:31.991040
MEAN_MOTION    = 14.81723392
ECCENTRICITY   = .0016555
INCLINATION    = 82.4917
RA_OF_ASC_NODE = 311.1832
ARG_OF_PERICENTER = 194.9446
MEAN_ANOMALY   = 165.1281

EPHEMERIS_TYPE = 0
CLASSIFICATION_TYPE = U
NORAD_CAT_ID   = 21423
ELEMENT_SET_NO = 999
REV_AT_EPOCH   = 83870
BSTAR          = .75736E-4
MEAN_MOTION_DOT = .621E-5
MEAN_MOTION_DDOT = 0

CCSDS_OMM_VERS = 2.0
CREATION_DATE  = 
ORIGINATOR     = 

OBJECT_NAME    = ERS-1
OBJECT_ID      = 1991-050A
CENTER_NAME    = EARTH
REF_FRAME      = TEME
TIME_SYSTEM    = UTC
MEAN_ELEMENT_THEORY = SGP/SGP4

EPOCH          = 2025-12-02T19:06:34.593408
MEAN_MOTION    = 14.39352269
ECCENTRICITY   = .0032818
INCLINATION    = 98.7910
RA_OF_ASC_NODE = 347.6022
ARG_OF_PERICENTER = 128.6729
MEAN_ANOMALY   = 231.7402

EPHEMERIS_TYPE = 0
CLASSIFICATION_TYPE = U
NORAD_CAT_ID   = 21574
ELEMENT_SET_NO = 999
REV_AT_EPOCH   = 80179
BSTAR          = .16551E-3
MEAN_MOTION_DOT = .471E-5
MEAN_MOTION_DDOT = 0

CCSDS_OMM_VERS = 2.0
CREATION_DATE  = 
ORIGINATOR     = 

OBJECT_NAME    = ARIANE 40 R/B
OBJECT_ID      = 1991-050F
CENTER_NAME    = EARTH
REF_FRAME      = TEME
TIME_SYSTEM    = UTC
MEAN_ELEMENT_THEORY = SGP/SGP4

EPOCH          = 2025-12-02T17:32:18.250656
MEAN_MOTION    = 14.42799408
ECCENTRICITY   = .00034
INCLINATION    = 98.2179
RA_OF_ASC_NODE = 27.5218
ARG_OF_PERICENTER = 28.2606
MEAN_ANOMALY   = 331.8769

EPHEMERIS_TYPE = 0
CLASSIFICATION_TYPE = U
NORAD_CAT_ID   = 21610
ELEMENT_SET_NO = 999
REV_AT_EPOCH   = 80501
BSTAR          = .16261E-3
MEAN_MOTION_DOT = .5E-5
MEAN_MOTION_DDOT = 0

CCSDS_OMM_VERS = 2.0
CREATION_DATE  = 
ORIGINATOR     = 

OBJECT_NAME    = INTERCOSMOS 25
OBJECT_ID      = 1991-086A
CENTER_NAME    = EARTH
REF_FRAME      = TEME
TIME_SYSTEM    = UTC
MEAN_ELEMENT_THEORY = SGP/SGP4

EPOCH          = 2025-12-02T19:27:19.065312
MEAN_MOTION    = 12.11671605
ECCENTRICITY   = .1487092
INCLINATION    = 82.6069
RA_OF_ASC_NODE = 8.5803
ARG_OF_PERICENTER = 325.8184
MEAN_ANOMALY   = 25.5237

EPHEMERIS_TYPE = 0
CLASSIFICATION_TYPE = U
NORAD_CAT_ID   = 21819
ELEMENT_SET_NO = 999
REV_AT_EPOCH   = 48495
BSTAR          = .62541E-3
MEAN_MOTION_DOT = .3154E-4
MEAN_MOTION_DDOT = 0

CCSDS_OMM_VERS = 2.0
CREATION_DATE  = 
ORIGINATOR     = 

OBJECT_NAME    = SL-8 R/B
OBJECT_ID      = 1992-008B
CENTER_NAME    = EARTH
REF_FRAME      = TEME
TIME_SYSTEM    = UTC
MEAN_ELEMENT_THEORY = SGP/SGP4

EPOCH          = 2025-12-02T19:29:54.218976
MEAN_MOTION    = 13.75955716
ECCENTRICITY   = .0035716
INCLINATION    = 82.9263
RA_OF_ASC_NODE = 339.8313
ARG_OF_PERICENTER = 46.9450
MEAN_ANOMALY   = 126.5636

EPHEMERIS_TYPE = 0
CLASSIFICATION_TYPE = U
NORAD_CAT_ID   = 21876
ELEMENT_SET_NO = 999
REV_AT_EPOCH   = 69609
BSTAR          = .17228E-3
MEAN_MOTION_DOT = .183E-5
MEAN_MOTION_DDOT = 0

CCSDS_OMM_VERS = 2.0
CREATION_DATE  = 
ORIGINATOR     = 

OBJECT_NAME    = SL-8 R/B
OBJECT_ID      = 1992-020B
CENTER_NAME    = EARTH
REF_FRAME      = TEME
TIME_SYSTEM    = UTC
MEAN_ELEMENT_THEORY = SGP/SGP4

EPOCH          = 2025-12-02T19:18:09.633024
MEAN_MOTION    = 13.75524744
ECCENTRICITY   = .0028283
INCLINATION    = 82.9313
RA_OF_ASC_NODE = 225.6946
ARG_OF_PERICENTER = 206.2697
MEAN_ANOMALY   = 222.1512

EPHEMERIS_TYPE = 0
CLASSIFICATION_TYPE = U
NORAD_CAT_ID   = 21938
ELEMENT_SET_NO = 999
REV_AT_EPOCH   = 68781
BSTAR          = .67169E-4
MEAN_MOTION_DOT = .8E-6
MEAN_MOTION_DDOT = 0

CCSDS_OMM_VERS = 2.0
CREATION_DATE  = 
ORIGINATOR     = 

OBJECT_NAME    = USA 81
OBJECT_ID      = 1992-023A
CENTER_NAME    = EARTH
REF_FRAME      = TEME
TIME_SYSTEM    = UTC
MEAN_ELEMENT_THEORY = SGP/SGP4

EPOCH          = 2025-12-02T20:01:40.361088
MEAN_MOTION    = 14.32321094
ECCENTRICITY   = .0001852
INCLINATION    = 85.0089
RA_OF_ASC_NODE = 187.2885
ARG_OF_PERICENTER = 62.8556
MEAN_ANOMALY   = 297.2826

EPHEMERIS_TYPE = 0
CLASSIFICATION_TYPE = U
NORAD_CAT_ID   = 21949
ELEMENT_SET_NO = 999
REV_AT_EPOCH   = 8092
BSTAR          = .85583E-4
MEAN_MOTION_DOT = .251E-5
MEAN_MOTION_DDOT = 0

CCSDS_OMM_VERS = 2.0
CREATION_DATE  = 
ORIGINATOR     = 

OBJECT_NAME    = COSMOS 2219
OBJECT_ID      = 1992-076A
CENTER_NAME    = EARTH
REF_FRAME      = TEME
TIME_SYSTEM    = UTC
MEAN_ELEMENT_THEORY = SGP/SGP4

EPOCH          = 2025-12-02T19:42:23.694912
MEAN_MOTION    = 14.14064038
ECCENTRICITY   = .0018839
INCLINATION    = 71.0594
RA_OF_ASC_NODE = 220.5662
ARG_OF_PERICENTER = 340.4800
MEAN_ANOMALY   = 19.5599

EPHEMERIS_TYPE = 0
CLASSIFICATION_TYPE = U
NORAD_CAT_ID   = 22219
ELEMENT_SET_NO = 999
REV_AT_EPOCH   = 70468
BSTAR          = -.96782E-4
MEAN_MOTION_DOT = -.232E-5
MEAN_MOTION_DDOT = 0

CCSDS_OMM_VERS = 2.0
CREATION_DATE  = 
ORIGINATOR     = 

OBJECT_NAME    = SL-16 R/B
OBJECT_ID      = 1992-076B
CENTER_NAME    = EARTH
REF_FRAME      = TEME
TIME_SYSTEM    = UTC
MEAN_ELEMENT_THEORY = SGP/SGP4

EPOCH          = 2025-12-02T15:09:44.800128
MEAN_MOTION    = 14.16841059
ECCENTRICITY   = .0015072
INCLINATION    = 71.0016
RA_OF_ASC_NODE = 32.8242
ARG_OF_PERICENTER = 247.5825
MEAN_ANOMALY   = 226.9683

EPHEMERIS_TYPE = 0
CLASSIFICATION_TYPE = U
NORAD_CAT_ID   = 22220
ELEMENT_SET_NO = 999
REV_AT_EPOCH   = 70808
BSTAR          = .66407E-4
MEAN_MOTION_DOT = .85E-6
MEAN_MOTION_DDOT = 0

CCSDS_OMM_VERS = 2.0
CREATION_DATE  = 
ORIGINATOR     = 

OBJECT_NAME    = COSMOS 2221
OBJECT_ID      = 1992-080A
CENTER_NAME    = EARTH
REF_FRAME      = TEME
TIME_SYSTEM    = UTC
MEAN_ELEMENT_THEORY = SGP/SGP4

EPOCH          = 2025-12-02T13:58:34.321152
MEAN_MOTION    = 14.95698365
ECCENTRICITY   = .0015328
INCLINATION    = 82.5052
RA_OF_ASC_NODE = 12.0477
ARG_OF_PERICENTER = 153.4928
MEAN_ANOMALY   = 206.7081

EPHEMERIS_TYPE = 0
CLASSIFICATION_TYPE = U
NORAD_CAT_ID   = 22236
ELEMENT_SET_NO = 999
REV_AT_EPOCH   = 76627
BSTAR          = .25338E-3
MEAN_MOTION_DOT = .2851E-4
MEAN_MOTION_DDOT = 0

CCSDS_OMM_VERS = 2.0
CREATION_DATE  = 
ORIGINATOR     = 

OBJECT_NAME    = SL-16 R/B
OBJECT_ID      = 1992-093B
CENTER_NAME    = EARTH
REF_FRAME      = TEME
TIME_SYSTEM    = UTC
MEAN_ELEMENT_THEORY = SGP/SGP4

EPOCH          = 2025-12-02T20:24:10.560672
MEAN_MOTION    = 14.15425644
ECCENTRICITY   = .0001941
INCLINATION    = 71.0202
RA_OF_ASC_NODE = 207.5555
ARG_OF_PERICENTER = 102.1427
MEAN_ANOMALY   = 257.9913

EPHEMERIS_TYPE = 0
CLASSIFICATION_TYPE = U
NORAD_CAT_ID   = 22285
ELEMENT_SET_NO = 999
REV_AT_EPOCH   = 69945
BSTAR          = -.39858E-4
MEAN_MOTION_DOT = -.125E-5
MEAN_MOTION_DDOT = 0

