COSMOS 2151             
1 21422U 91042A   25336.81485426  .00002185  00000+0  17507-3 0  9992
2 21422  82.4962 177.0670 0013418  32.3804 327.8240 14.99626880848671
SL-14 R/B               
1 21423U 91042B   25336.65245360  .00000621  00000+0  75736-4 0  9998
2 21423  82.4917 311.1832 0016555 194.9446 165.1281 14.81723392838703
ERS-1                   
1 21574U 91050A   25336.79623372  .00000471  00000+0  16551-3 0  9994
2 21574  98.7910 347.6022 0032818 128.6729 231.7402 14.39352269801794
ARIANE 40 R/B           
1 21610U 91050F   25336.73076679  .00000500  00000+0  16261-3 0  9992
2 21610  98.2179  27.5218 0003400  28.2606 331.8769 14.42799408805013
INTERCOSMOS 25          
1 21819U 91086A   25336.81063733  .00003154  00000+0  62541-3 0  9998
2 21819  82.6069   8.5803 1487092 325.8184  25.5237 12.11671605484954
SL-8 R/B                
1 21876U 92008B   25336.81243309  .00000183  00000+0  17228-3 0  9996
2 21876  82.9263 339.8313 0035716  46.9450 126.5636 13.75955716696094
SL-8 R/B                
1 21938U 92020B   25336.80427816  .00000080  00000+0  67169-4 0  9991
2 21938  82.9313 225.6946 0028283 206.2697 222.1512 13.75524744687817
USA 81                  
1 21949U 92023A   25336.83449492  .00000251  00000+0  85583-4 0  9993
2 21949  85.0089 187.2885 0001852  62.8556 297.2826 14.32321094 80928
COSMOS 2219             
1 22219U 92076A   25336.82110758 -.00000232  00000+0 -96782-4 0  9995
2 22219  71.0594 220.5662 0018839 340.4800  19.5599 14.14064038704689
SL-16 R/B               
1 22220U 92076B   25336.63176852  .00000085  00000+0  66407-4 0  9998
2 22220  71.0016  32.8242 0015072 247.5825 226.9683 14.16841059708082
COSMOS 2221             
1 22236U 92080A   25336.58234168  .00002851  00000+0  25338-3 0  9999
2 22236  82.5052  12.0477 0015328 153.4928 206.7081 14.95698365766279
SL-16 R/B               
1 22285U 92093B   25336.85012223 -.00000125  00000+0 -39858-4 0  9990
2 22285  71.0202 207.5555 0001941 102.1427 257.9913 14.15425644699459
